STARLINK-34838          
1 65343U 25189W   26196.52911937  .00010966  00000+0  33529-3 0  9993
2 65343  53.1596 332.6463 0001051  90.7592 269.3531 15.34392448 50690
STARLINK-35088          
1 65344U 25189X   26196.81701606  .00020074  00000+0  60348-3 0  9996
2 65344  53.1621 331.6055 0000718  64.1919 295.9158 15.34409221 50736
STARLINK-34831          
1 65345U 25189Y   26196.75657184  .00020218  00000+0  66118-3 0  9992
2 65345  53.1616 331.2292 0000354 129.0853 231.0180 15.31716165 50735
STARLINK-34873          
1 65346U 25189Z   26197.16668980  .00033088  00000+0  98678-3 0  9990
2 65346  53.1612 329.4653 0000919  73.5655 314.9848 15.34378765  5850
STARLINK-34881          
1 65347U 25189AA  26196.81215485  .00015968  00000+0  52468-3 0  9994
2 65347  53.1609 330.8669 0000122 189.4643 170.6356 15.31731313 50737
STARLINK-34859          
1 65348U 25189AB  26196.78755561  .00016705  00000+0  50443-3 0  9996
2 65348  53.1613 331.4227 0000732 106.6149 253.4935 15.34399992 50727
STARLINK-34895          
1 65349U 25189AC  26196.54182301  .00016304  00000+0  53581-3 0  9998
2 65349  53.1602 332.0225 0000814  56.7299 303.3781 15.31710865 50652
STARLINK-34892          
1 65350U 25189AD  26196.52781953  .00010259  00000+0  34180-3 0  9993
2 65350  53.1597 331.9352 0001101  89.5200 270.5927 15.31709766 50646
STARLINK-34244          
1 65351U 25190A   26196.58186216  .00007515  00000+0  23342-3 0  9992
2 65351  53.1599 292.2085 0001694  53.9046 306.2113 15.34387883 49367
STARLINK-34716          
1 65352U 25190B   26196.50152664  .00006681  00000+0  23746-3 0  9996
2 65352  53.1587 294.5194 0001048 108.3378 251.7737 15.30205010 49326
STARLINK-34828          
1 65353U 25190C   26196.54046609  .00008912  00000+0  31266-3 0  9997
2 65353  53.1601 294.0473 0001275  77.8758 282.2385 15.30199217 49333
STARLINK-34785          
1 65354U 25190D   26196.55250087  .00018868  00000+0  56803-3 0  9991
2 65354  53.1578 292.7101 0001216  64.3556 295.7572 15.34406802 48883
STARLINK-34823          
1 65355U 25190E   26196.62266269  .00006917  00000+0  24544-3 0  9998
2 65355  53.1583 293.8497 0000819  64.8805 295.2280 15.30201844 49348
STARLINK-34680          
1 65356U 25190F   26196.53002414  .00008232  00000+0  28976-3 0  9994
2 65356  53.1603 294.6924 0001074  92.7149 267.3975 15.30197293 48859
STARLINK-34860          
1 65357U 25190G   26197.22067855  .00011223  00000+0  34282-3 0  9993
2 65357  53.1579 289.7728 0001090 105.4483 254.6640 15.34398043 48982
STARLINK-34782          
1 65358U 25190H   26196.53518174  .00024332  00000+0  83039-3 0  9991
2 65358  53.1600 294.0169 0000317  68.6850 291.4185 15.30222477 49331
STARLINK-34760          
1 65359U 25190J   26196.54679995  .00008553  00000+0  30058-3 0  9992
2 65359  53.1598 294.0860 0000855  68.0349 292.0743 15.30197798 48861
STARLINK-34826          
1 65360U 25190K   26196.26880078  .00016811  00000+0  50767-3 0  9994
2 65360  53.1600 293.7850 0000891  63.7337 296.3757 15.34392696 48849
STARLINK-34800          
1 65361U 25190L   26196.53413417  .00015917  00000+0  54842-3 0  9998
2 65361  53.1603 294.0048 0001047  92.9023 267.2097 15.30198266 48865
STARLINK-34817          
1 65362U 25190M   26196.51881121  .00011814  00000+0  36010-3 0  9997
2 65362  53.1588 292.4995 0001309  89.9070 270.2083 15.34412253 49353
STARLINK-34797          
1 65363U 25190N   26196.49787016  .00010088  00000+0  30936-3 0  9996
2 65363  53.1581 293.0798 0000848  69.2533 290.8560 15.34393264 49344
STARLINK-34729          
1 65364U 25190P   26196.49520046  .00005285  00000+0  19046-3 0  9997
2 65364  53.1593 294.4761 0000840  90.9381 269.1716 15.30195986 49740
STARLINK-34710          
1 65365U 25190Q   26197.16668980  .00102608  00000+0  30353-2 0  9993
2 65365  53.1595 291.7153 0003496 187.2134  92.8132 15.34098006  5658
STARLINK-34943          
1 65366U 25190R   26196.49997433  .00018813  00000+0  56673-3 0  9995
2 65366  53.1597 293.0915 0000956  79.6559 280.4552 15.34389291 48876
STARLINK-34946          
1 65367U 25190S   26196.62182850  .00007742  00000+0  24005-3 0  9993
2 65367  53.1585 292.4259 0000982  81.1662 278.9452 15.34398295 49360
STARLINK-34259          
1 65368U 25190T   26196.74578816  .00017049  00000+0  51448-3 0  9990
2 65368  53.1585 291.7826 0001141  77.4403 282.6727 15.34406755 49382
STARLINK-34913          
1 65369U 25190U   26197.22698682  .00009574  00000+0  29414-3 0  9991
2 65369  53.1586 289.8064 0001153 106.2821 253.8308 15.34400042 49450
STARLINK-34870          
1 65370U 25190V   26196.62687497  .00017070  00000+0  58680-3 0  9995
2 65370  53.1581 293.8755 0000854  75.8127 284.2969 15.30218812 48870
STARLINK-34869          
1 65371U 25190W   26196.62899753  .00006473  00000+0  23052-3 0  9996
2 65371  53.1585 293.8850 0000876  65.3398 294.7694 15.30196372 49349
STARLINK-34903          
1 65372U 25190X   26196.55101778  .00004572  00000+0  16649-3 0  9994
2 65372  53.1595 294.1057 0001301  88.5372 271.5778 15.30181582 49339
